{"type": "FeatureCollection", "name": "F1", "crs_note": "floor frame, inches; physical story F1 (source drawing sheet F1)", "features": [{"type": "Feature", "properties": {"id": "R002", "type": "room", "name": null, "area_sqft": 77.4, "flags": [], "source": "candidate", "reg_status": "n/a"}, "geometry": {"type": "Polygon", "coordinates": [[[2127.85, 924.22], [2127.83, 924.06], [2015.97, 937.83], [2018.41, 955.75], [1998.69, 998.56], [1999.33, 997.19], [2104.31, 1030.5], [2109.52, 1018.22], [2146.51, 1013.67], [2135.36, 923.3], [2127.85, 924.22]]]}}, {"type": "Feature", "properties": {"id": "R005", "type": "room", "name": null, "area_sqft": 132.5, "flags": [], "source": "candidate", "reg_status": "n/a"}, "geometry": {"type": "Polygon", "coordinates": [[[2000.4, 824.16], [2006.34, 871.72], [2006.36, 871.84], [2114.71, 854.07], [2119.01, 853.54], [2098.52, 689.61], [1991.14, 702.82], [1991.14, 702.83], [1985.33, 703.54], [1991.76, 754.96], [2000.4, 824.16]]]}}, {"type": "Feature", "properties": {"id": "R006", "type": "room", "name": null, "area_sqft": 191.0, "flags": [], "source": "candidate", "reg_status": "n/a"}, "geometry": {"type": "Polygon", "coordinates": [[[897.34, 681.82], [904.05, 688.38], [897.61, 708.57], [897.6, 722.89], [1100.8, 787.04], [1100.73, 775.75], [1107.27, 755.22], [1100.46, 748.56], [1099.21, 619.37], [1033.23, 621.02], [1033.19, 616.06], [896.76, 621.34], [897.34, 681.82]]]}}, {"type": "Feature", "properties": {"id": "R007", "type": "room", "name": null, "area_sqft": 206.4, "flags": [], "source": "candidate", "reg_status": "n/a"}, "geometry": {"type": "Polygon", "coordinates": [[[682.09, 624.25], [682.19, 638.65], [682.09, 654.86], [897.58, 722.88], [897.62, 708.54], [904.05, 688.38], [897.34, 681.82], [896.07, 549.91], [681.34, 551.99], [681.96, 615.79], [682.01, 616.04], [682.09, 624.25]]]}}, {"type": "Feature", "properties": {"id": "R009", "type": "void", "name": null, "area_sqft": 34.8, "flags": [], "source": "candidate", "reg_status": "n/a"}, "geometry": {"type": "Polygon", "coordinates": [[[263.93, 522.85], [291.11, 531.43], [307.38, 486.28], [300.54, 483.97], [348.06, 334.92], [326.07, 327.94], [275.22, 488.02], [270.06, 502.28], [270.44, 502.4], [263.93, 522.85]]]}}, {"type": "Feature", "properties": {"id": "R010", "type": "room", "name": null, "area_sqft": 5430.2, "flags": [], "source": "candidate", "reg_status": "n/a"}, "geometry": {"type": "Polygon", "coordinates": [[[1099.21, 619.37], [1099.69, 669.52], [1538.2, 665.23], [1535.68, 709.91], [1535.85, 727.31], [1660.76, 726.1], [1661.26, 778.0], [1747.22, 776.17], [1737.3, 800.58], [1746.16, 778.78], [1767.0933914997217, 779.0991369833212], [1766.602797253178, 728.4556248822971], [1767.97, 725.09], [1901.45, 724.0], [1899.66, 625.13], [1936.08, 623.0], [1927.58, 554.15], [1960.78, 547.62], [1929.42, 553.78], [1920.5, 496.83], [1914.64, 449.35], [1901.21, 450.95], [1902.12, 401.36], [1898.1820738998833, -3.020116775702271], [1899.4, 123.94], [1762.91, 125.26], [1761.6900125037919, -1.6986987857340223], [1321.8, 2.56], [1321.74, 0.33], [1275.42, 0.53], [1275.48, 3.01], [1110.77, 4.61], [1110.71, 1.24], [1064.39, 1.44], [1064.45, 5.06], [899.73, 6.65], [899.66, 2.15], [853.02, 2.35], [853.09, 7.1], [676.07, 8.82], [678.33, 239.88], [677.18, 241.03], [678.85, 292.46], [681.38, 551.99], [896.07, 549.91], [896.76, 621.34], [1033.19, 616.06], [1033.23, 621.02], [1099.21, 619.37]], [[1546.3, 22.91], [1547.35, 130.33], [1463.81, 131.14], [1462.77, 23.72], [1546.3, 22.91]]]}}, {"type": "Feature", "properties": {"id": "R013", "type": "room", "name": null, "area_sqft": 95.3, "flags": [], "source": "candidate", "reg_status": "n/a"}, "geometry": {"type": "Polygon", "coordinates": [[[1901.25, 312.17], [2027.87, 310.94], [2045.7, 308.76], [2033.84, 212.07], [1900.28, 213.36], [1901.25, 312.17]]]}}, {"type": "Feature", "properties": {"id": "R014", "type": "room", "name": null, "area_sqft": 305.6, "flags": [], "source": "candidate", "reg_status": "n/a"}, "geometry": {"type": "Polygon", "coordinates": [[[467.06, 217.92], [678.1, 215.86], [676.11, 12.19], [680.2, 3.09], [641.99, 3.25], [642.06, 9.15], [477.34, 10.75], [477.26, 3.96], [464.97, 4.01], [467.06, 217.92]]]}}, {"type": "Feature", "properties": {"id": "R015", "type": "room", "name": null, "area_sqft": 181.1, "flags": [], "source": "candidate", "reg_status": "n/a"}, "geometry": {"type": "Polygon", "coordinates": [[[2007.74, -0.69], [1898.17, -3.02], [1900.28, 213.36], [2033.84, 212.07], [2007.74, -0.69]]]}}, {"type": "Feature", "properties": {"id": "R016", "type": "room", "name": null, "area_sqft": 62.3, "flags": [], "source": "candidate", "reg_status": "n/a"}, "geometry": {"type": "Polygon", "coordinates": [[[1463.81, 131.14], [1547.35, 130.33], [1546.3, 22.91], [1462.77, 23.72], [1463.81, 131.14]]]}}, {"type": "Feature", "properties": {"id": "R017", "type": "room", "name": null, "area_sqft": 120.3, "flags": [], "source": "candidate", "reg_status": "n/a"}, "geometry": {"type": "Polygon", "coordinates": [[[1762.91, 125.26], [1899.4, 123.94], [1898.17, -3.02], [1761.69, -1.7], [1762.91, 125.26]]]}}, {"type": "Feature", "properties": {"id": "R018", "type": "room", "name": null, "area_sqft": 346.5, "flags": [], "source": "candidate", "reg_status": "n/a"}, "geometry": {"type": "Polygon", "coordinates": [[[1310.7, 670.53], [1314.42, 854.47], [1530.35, 922.64], [1537.52, 900.19], [1535.68, 709.93], [1538.2, 665.23], [1312.55, 667.44], [1312.58, 670.57], [1310.7, 670.53]]]}}, {"type": "Feature", "properties": {"id": "R019", "type": "room", "name": null, "area_sqft": 200.1, "flags": [], "source": "candidate", "reg_status": "n/a"}, "geometry": {"type": "Polygon", "coordinates": [[[1209.53, 668.44], [1209.82, 698.78], [1099.99, 699.85], [1100.46, 748.56], [1107.27, 755.22], [1100.73, 775.75], [1100.8, 787.04], [1314.42, 854.47], [1310.64, 667.45], [1209.53, 668.44]]]}}, {"type": "Feature", "properties": {"id": "R020", "type": "room", "name": null, "area_sqft": 279.2, "flags": [], "source": "candidate", "reg_status": "n/a"}, "geometry": {"type": "Polygon", "coordinates": [[[1661.25, 777.06], [1660.76, 726.1], [1535.85, 727.31], [1537.53, 900.14], [1530.35, 922.64], [1703.22, 977.21], [1711.08, 954.28], [1757.82, 807.71], [1763.28, 809.44], [1737.3, 800.58], [1737.68, 799.64], [1679.1, 782.72], [1661.25, 777.06]]]}}, {"type": "Feature", "properties": {"id": "R021", "type": "room", "name": null, "area_sqft": 183.0, "flags": [], "source": "candidate", "reg_status": "n/a"}, "geometry": {"type": "Polygon", "coordinates": [[[1897.14, 857.98], [1894.95, 857.28], [1896.7, 851.78], [1757.82, 807.71], [1711.08, 954.28], [1703.22, 977.21], [1844.86, 1021.93], [1884.56, 897.43], [1885.14, 897.62], [1897.14, 857.98]]]}}, {"type": "Feature", "properties": {"id": "R022", "type": "room", "name": null, "area_sqft": 100.9, "flags": ["geometry_replaced_by_draw:path6615"], "source": "candidate", "reg_status": "n/a"}, "geometry": {"type": "Polygon", "coordinates": [[[1903.41, 831.59], [1901.45, 723.76], [1766.57, 725.07], [1767.4, 810.75], [1896.16, 851.61], [1903.41, 831.59]]]}}, {"type": "Feature", "properties": {"id": "R026", "type": "room", "name": null, "area_sqft": 191.2, "flags": [], "source": "candidate", "reg_status": "n/a"}, "geometry": {"type": "Polygon", "coordinates": [[[291.11, 531.43], [402.35, 566.54], [468.43, 359.4], [468.04, 319.07], [419.13, 305.36], [401.66, 353.88], [400.97, 353.68], [400.62, 354.77], [384.54, 348.7], [347.27, 337.4], [300.54, 483.97], [307.38, 486.28], [291.11, 531.43]]]}}, {"type": "Feature", "properties": {"id": "R027", "type": "room", "name": null, "area_sqft": 232.4, "flags": [], "source": "candidate", "reg_status": "n/a"}, "geometry": {"type": "Polygon", "coordinates": [[[144.02, 484.99], [263.93, 522.85], [270.44, 502.4], [270.06, 502.28], [275.22, 488.02], [325.19, 330.71], [289.7, 319.96], [309.15, 264.86], [322.93, 219.33], [233.47, 220.21], [233.56, 229.53], [225.44, 229.6], [144.02, 484.99]]]}}, {"type": "Feature", "properties": {"id": "R028", "type": "room", "name": null, "area_sqft": 333.6, "flags": [], "source": "candidate", "reg_status": "n/a"}, "geometry": {"type": "Polygon", "coordinates": [[[225.44, 229.6], [225.9, 229.6], [238.12, 191.48], [189.96, 164.11], [161.38, 209.41], [146.61, 211.22], [108.11, 186.97], [104.7, 188.11], [99.13, 182.65], [54.49, 186.54], [48.55, 199.11], [45.73, 200.56], [51.96, 269.74], [53.07, 278.7], [-5.25, 294.03], [14.04, 444.65], [19.43, 445.66], [144.02, 484.99], [225.44, 229.6]]]}}, {"type": "Feature", "properties": {"id": "R029", "type": "room", "name": null, "area_sqft": 127.3, "flags": [], "source": "candidate", "reg_status": "n/a"}, "geometry": {"type": "Polygon", "coordinates": [[[54.49, 186.54], [99.13, 182.65], [104.7, 188.11], [108.11, 186.97], [146.61, 211.22], [161.38, 209.41], [188.2, 166.9], [185.33, 165.09], [186.8, 162.41], [178.79, 157.76], [124.29, 126.78], [-26.45, 128.52], [-5.25, 294.03], [53.07, 278.7], [51.96, 269.74], [45.73, 200.56], [48.55, 199.11], [54.49, 186.54]]]}}, {"type": "Feature", "properties": {"id": "R030", "type": "room", "name": null, "area_sqft": 133.9, "flags": ["geometry_replaced_by_draw:path6608"], "source": "candidate", "reg_status": "n/a"}, "geometry": {"type": "Polygon", "coordinates": [[[-26.68, 126.68], [-26.68, 126.69], [-26.45, 128.52], [124.29, 126.78], [123.57, 126.38], [123.45, 5.48], [122.32, 5.48], [-42.2, 5.5], [-26.68, 126.68]]]}}, {"type": "Feature", "properties": {"id": "R032", "type": "room", "name": "Elev. 2", "area_sqft": 68.5, "flags": ["from_draw", "name_provisional"], "source": "user_draw", "reg_status": "n/a"}, "geometry": {"type": "Polygon", "coordinates": [[[1974.81, 619.27], [1985.33, 703.54], [2098.52, 689.61], [2087.58, 602.11], [1974.81, 619.27]]]}}, {"type": "Feature", "properties": {"id": "R033", "type": "room", "name": "Kitchen", "area_sqft": 105.8, "flags": ["from_seal", "name_provisional"], "source": "user_seal", "reg_status": "n/a"}, "geometry": {"type": "Polygon", "coordinates": [[[1973.96, 545.03], [1971.72, 545.47], [1972.28, 550.02], [1960.78, 547.62], [1927.58, 554.15], [1935.81, 620.83], [1936.07, 622.93], [1974.97, 620.58], [1974.81, 619.27], [2081.79, 602.99], [2081.54, 600.92], [2067.48, 486.29], [2052.23, 488.17], [2052.41, 489.59], [1967.43, 498.47], [1968.54, 506.4], [1973.96, 545.03]]]}}, {"type": "Feature", "properties": {"id": "R034", "type": "room", "name": null, "area_sqft": 462.8, "flags": ["from_draw:path6609", "needs_name"], "source": "user_draw", "reg_status": "n/a"}, "geometry": {"type": "Polygon", "coordinates": [[[123.45, 5.48], [123.57, 126.38], [189.96, 164.11], [238.12, 191.48], [238.45, 191.67], [237.35, 193.86], [228.89, 220.25], [464.95, 217.94], [467.06, 217.92], [464.97, 4.01], [464.9, 4.01], [462.72, 4.02], [123.45, 5.48]]]}}, {"type": "Feature", "properties": {"id": "R035", "type": "room", "name": null, "area_sqft": 230.7, "flags": ["from_draw:path6610", "needs_name"], "source": "user_draw", "reg_status": "n/a"}, "geometry": {"type": "Polygon", "coordinates": [[[325.19, 330.71], [326.07, 327.94], [348.06, 334.92], [347.27, 337.4], [401.66, 353.88], [419.13, 305.36], [403.17, 300.88], [403.55, 297.83], [678.83, 290.55], [678.1, 215.86], [323.59, 219.32], [289.7, 319.96], [325.19, 330.71]]]}}, {"type": "Feature", "properties": {"id": "R036", "type": "room", "name": null, "area_sqft": 23.1, "flags": ["from_draw:path6613", "needs_name"], "source": "user_draw", "reg_status": "n/a"}, "geometry": {"type": "Polygon", "coordinates": [[[1209.53, 668.44], [1100.22, 669.51], [1100.04, 699.85], [1209.82, 698.78], [1209.53, 668.44]]]}}, {"type": "Feature", "properties": {"id": "R037", "type": "room", "name": null, "area_sqft": 288.5, "flags": ["from_draw:path6616", "needs_name"], "source": "user_draw", "reg_status": "n/a"}, "geometry": {"type": "Polygon", "coordinates": [[[1912.11, 1043.16], [1932.49, 974.98], [1998.69, 998.56], [2018.41, 955.75], [2015.97, 937.83], [2014.62, 938.0], [2006.36, 871.84], [2006.34, 871.72], [1974.97, 620.58], [1899.66, 625.13], [1903.41, 831.6], [1896.16, 851.61], [1896.7, 851.78], [1894.95, 857.28], [1897.12, 857.97], [1844.83, 1021.92], [1912.11, 1043.16]]]}}, {"type": "Feature", "properties": {"id": "R038", "type": "room", "name": null, "area_sqft": 54.6, "flags": ["from_draw:path6617", "needs_name"], "source": "user_draw", "reg_status": "n/a"}, "geometry": {"type": "Polygon", "coordinates": [[[2006.36, 871.84], [2014.62, 938.0], [2127.83, 924.06], [2118.99, 853.37], [2006.36, 871.84]]]}}, {"type": "Feature", "properties": {"id": "R039", "type": "room", "name": null, "area_sqft": 31.5, "flags": ["from_draw:path6618", "needs_name"], "source": "user_draw", "reg_status": "n/a"}, "geometry": {"type": "Polygon", "coordinates": [[[1967.43, 498.47], [1965.69, 498.65], [1956.76, 444.06], [1914.05, 455.67], [1929.42, 553.78], [1973.96, 545.03], [1967.43, 498.47]]]}}, {"type": "Feature", "properties": {"id": "R040", "type": "room", "name": null, "area_sqft": 177.7, "flags": ["from_draw:path6619", "needs_name"], "source": "user_draw", "reg_status": "n/a"}, "geometry": {"type": "Polygon", "coordinates": [[[2027.87, 310.94], [1916.02, 312.03], [1901.25, 312.03], [1902.12, 401.36], [1901.21, 450.95], [1956.81, 444.34], [1965.69, 498.65], [2067.69, 487.99], [2046.1, 312.02], [2045.7, 308.76], [2027.87, 310.94]]]}}, {"type": "Feature", "properties": {"id": "R041", "type": "room", "name": null, "area_sqft": 333.3, "flags": ["from_draw:path6621", "needs_name"], "source": "user_draw", "reg_status": "n/a"}, "geometry": {"type": "Polygon", "coordinates": [[[492.49, 426.29], [492.19, 395.75], [456.42, 397.01], [402.34, 566.54], [644.52, 643.0], [681.35, 548.07], [680.1, 420.52], [492.49, 426.29]]]}}, {"type": "Feature", "properties": {"id": "R042", "type": "void", "name": null, "area_sqft": 5.1, "flags": ["void_from_exclude"], "source": "user_exclude", "reg_status": "n/a"}, "geometry": {"type": "Polygon", "coordinates": [[[462.75, 317.59], [466.12, 298.47], [436.57, 296.96], [403.55, 297.83], [403.17, 300.88], [462.75, 317.59]]]}}, {"type": "Feature", "properties": {"id": "R043", "type": "void", "name": null, "area_sqft": 11.8, "flags": ["void_punched_from_R010"], "source": "user_exclude", "reg_status": "n/a"}, "geometry": {"type": "MultiPolygon", "coordinates": [[[[1747.22, 776.17], [1672.58, 777.76], [1672.19, 780.73], [1737.68, 799.64], [1747.22, 776.17]]], [[[1746.16, 778.78], [1737.3, 800.58], [1768.93, 811.37], [1767.15, 779.1], [1746.16, 778.78]]]]}}, {"type": "Feature", "properties": {"id": "R044", "type": "void", "name": null, "area_sqft": 14.2, "flags": ["void_from_exclude"], "source": "user_exclude", "reg_status": "n/a"}, "geometry": {"type": "Polygon", "coordinates": [[[645.93, 646.79], [682.35, 656.72], [682.23, 638.3], [681.42, 555.48], [677.12, 555.44], [645.93, 646.79]]]}}, {"type": "Feature", "properties": {"id": "R045", "type": "room", "name": null, "area_sqft": 188.1, "flags": ["from_draw:path6630", "needs_name"], "source": "user_draw", "reg_status": "n/a"}, "geometry": {"type": "Polygon", "coordinates": [[[678.85, 292.46], [496.86, 294.22], [496.53, 295.37], [436.57, 296.96], [466.12, 298.47], [462.75, 317.59], [468.04, 319.07], [468.43, 359.4], [456.43, 397.01], [492.19, 395.75], [492.49, 426.29], [677.54, 420.59], [680.1, 420.57], [678.85, 292.46]]]}}, {"type": "Feature", "properties": {"id": "R047", "type": "room", "name": null, "area_sqft": 125.2, "flags": ["from_draw:path6632", "needs_name", "absorbed_R001_per_baba"], "source": "user_draw", "reg_status": "n/a"}, "geometry": {"type": "Polygon", "coordinates": [[[1905.0, 1040.952897473997], [2159.7461238924734, 1121.5783423314963], [2146.496519969208, 1013.6716581276048], [2109.52, 1018.22], [2104.31, 1030.5], [1999.33, 997.19], [1998.69, 998.56], [1932.49, 974.98], [1912.11, 1043.16], [1905.0, 1040.952897473997]]]}}]}