{"type": "FeatureCollection", "name": "F3", "crs_note": "floor frame, inches; source drawing F3", "features": [{"type": "Feature", "properties": {"id": "R001", "type": "room", "name": null, "area_sqft": 293.7, "flags": [], "source": "candidate", "reg_status": "n/a"}, "geometry": {"type": "Polygon", "coordinates": [[[2129.35, 1102.99], [2123.78, 1054.26], [2115.36, 1055.22], [2120.15, 1023.83], [2110.96, 1024.87], [2106.29, 901.84], [1978.8, 916.29], [1942.44, 904.35], [1860.96, 881.84], [1862.22, 878.01], [1854.56, 875.5], [1814.05, 999.5], [1821.48, 1001.95], [2129.35, 1102.99]]]}}, {"type": "Feature", "properties": {"id": "R002", "type": "room", "name": null, "area_sqft": 137.4, "flags": [], "source": "candidate", "reg_status": "n/a"}, "geometry": {"type": "Polygon", "coordinates": [[[1737.04, 806.45], [1737.08, 974.18], [1814.05, 999.5], [1854.56, 875.5], [1862.22, 878.01], [1873.41, 843.97], [1860.15, 838.57], [1860.15, 806.39], [1815.97, 806.39], [1815.97, 809.12], [1737.04, 806.45]]]}}, {"type": "Feature", "properties": {"id": "R003", "type": "room", "name": null, "area_sqft": 34.9, "flags": ["geometry_replaced_by_draw:path5563"], "source": "candidate", "reg_status": "n/a"}, "geometry": {"type": "Polygon", "coordinates": [[[1967.14, 917.61], [2058.51, 907.25], [2057.34, 877.21], [2058.61, 876.51], [2055.14, 845.67], [1988.24, 851.16], [1967.14, 917.61]]]}}, {"type": "Feature", "properties": {"id": "R004", "type": "room", "name": null, "area_sqft": 229.9, "flags": [], "source": "candidate", "reg_status": "n/a"}, "geometry": {"type": "Polygon", "coordinates": [[[1737.04, 787.38], [1667.1, 787.38], [1667.1, 777.54], [1528.97, 777.54], [1529.04, 905.76], [1737.08, 974.18], [1737.04, 787.38]]]}}, {"type": "Feature", "properties": {"id": "R005", "type": "room", "name": "Hallway", "area_sqft": 225.2, "flags": ["merged:R005+R009"], "source": "candidate", "reg_status": "n/a"}, "geometry": {"type": "Polygon", "coordinates": [[[1860.96, 881.84], [1942.44, 904.35], [1968.67, 912.96], [1988.4, 852.95], [1988.0, 852.95], [1983.14, 803.04], [1987.13, 802.62], [1974.5, 691.49], [1972.3, 691.74], [1963.6, 602.47], [1963.6, 602.42], [1960.25, 568.09], [1912.83, 567.57], [1912.85, 566.31], [1880.92, 567.28], [1880.93, 567.88], [1860.15, 568.89], [1860.15, 751.19], [1925.23, 751.2], [1933.73, 826.0], [1852.02, 835.26], [1873.41, 843.97], [1860.96, 881.84]]]}}, {"type": "Feature", "properties": {"id": "R006", "type": "room", "name": null, "area_sqft": 198.9, "flags": [], "source": "candidate", "reg_status": "n/a"}, "geometry": {"type": "Polygon", "coordinates": [[[1322.48, 837.82], [1524.74, 904.34], [1529.04, 905.76], [1528.97, 777.54], [1525.93, 777.54], [1525.93, 732.65], [1323.67, 731.53], [1322.48, 837.82]]]}}, {"type": "Feature", "properties": {"id": "R007", "type": "room", "name": null, "area_sqft": 121.9, "flags": [], "source": "candidate", "reg_status": "n/a"}, "geometry": {"type": "Polygon", "coordinates": [[[2084.52, 843.25], [2099.32, 840.38], [2093.63, 790.56], [2093.63, 790.55], [2080.92, 679.43], [1974.5, 691.49], [1987.13, 802.62], [1983.14, 803.04], [1987.82, 851.2], [2084.52, 843.25]]]}}, {"type": "Feature", "properties": {"id": "R010", "type": "room", "name": null, "area_sqft": 245.6, "flags": [], "source": "candidate", "reg_status": "n/a"}, "geometry": {"type": "Polygon", "coordinates": [[[901.45, 566.53], [901.63, 699.4], [1113.94, 769.23], [1113.8, 566.54], [1043.73, 566.85], [1043.73, 569.85], [901.45, 566.53]]]}}, {"type": "Feature", "properties": {"id": "R016", "type": "shaft", "name": null, "area_sqft": 51.2, "flags": [], "source": "candidate", "reg_status": "n/a"}, "geometry": {"type": "Polygon", "coordinates": [[[168.22, 324.48], [202.26, 324.48], [202.26, 292.64], [88.68, 305.51], [93.49, 347.86], [108.08, 370.75], [119.16, 374.39], [115.71, 384.9], [168.22, 402.14], [168.22, 324.48]]]}}, {"type": "Feature", "properties": {"id": "R017", "type": "room", "name": null, "area_sqft": 6523.9, "flags": ["absorbed:R012"], "source": "candidate", "reg_status": "n/a"}, "geometry": {"type": "Polygon", "coordinates": [[[423.89, 300.29], [669.46, 300.29], [669.53, 300.3], [671.72, 300.3], [671.72, 345.77], [675.82, 345.77], [674.7, 524.15], [838.82, 523.18], [838.82, 527.7], [900.72, 527.22], [900.75, 533.08], [901.45, 533.15], [901.45, 566.53], [1043.73, 569.85], [1043.73, 566.85], [1111.6, 566.55], [1111.6, 568.93], [1113.8, 568.93], [1113.8, 650.7], [1320.7, 650.7], [1320.7, 731.51], [1525.93, 732.65], [1525.93, 777.54], [1667.1, 777.54], [1667.1, 787.38], [1737.36, 787.38], [1738.45, 777.54], [1815.97, 777.54], [1815.97, 806.39], [1860.15, 806.39], [1860.15, 568.89], [1912.85, 566.32], [1914.29, 485.8], [1914.29, 434.74], [1908.62, 434.74], [1903.26, 428.98], [1903.24, 374.27], [1900.2, 374.27], [1900.2, 185.69], [1903.24, 185.69], [1903.3, 131.33], [1908.83, 125.86], [2017.63, 125.84], [2003.28, -0.36], [258.97, -0.38], [258.97, 22.41], [260.23, 22.41], [260.23, 108.16], [299.61, 108.16], [300.87, 109.38], [312.48, 109.38], [314.56, 156.24], [317.56, 156.24], [317.56, 300.3], [363.31, 300.3], [363.32, 300.29], [423.89, 300.29]]]}}, {"type": "Feature", "properties": {"id": "R018", "type": "room", "name": null, "area_sqft": 285.9, "flags": [], "source": "candidate", "reg_status": "n/a"}, "geometry": {"type": "Polygon", "coordinates": [[[1903.24, 374.27], [1903.26, 428.98], [1907.2, 433.21], [2052.87, 434.02], [2018.33, 131.92], [2018.09, 131.86], [2017.42, 125.86], [1908.83, 125.86], [1903.3, 131.33], [1903.24, 185.69], [1900.2, 185.69], [1900.2, 374.27], [1903.24, 374.27]]]}}, {"type": "Feature", "properties": {"id": "R019", "type": "room", "name": null, "area_sqft": 165.1, "flags": ["geometry_replaced_by_draw:path5559"], "source": "candidate", "reg_status": "n/a"}, "geometry": {"type": "Polygon", "coordinates": [[[200.74, 108.16], [66.26, 108.16], [87.74, 305.62], [201.45, 292.73], [200.74, 108.16]]]}}, {"type": "Feature", "properties": {"id": "R020", "type": "room", "name": null, "area_sqft": 108.7, "flags": ["geometry_replaced_by_draw:path5562"], "source": "candidate", "reg_status": "n/a"}, "geometry": {"type": "Polygon", "coordinates": [[[10.7, 108.03], [149.0, 108.16], [149.79, -3.12], [-1.39, 3.24], [10.7, 108.03]]]}}, {"type": "Feature", "properties": {"id": "R022", "type": "room", "name": null, "area_sqft": 40.3, "flags": [], "source": "candidate", "reg_status": "n/a"}, "geometry": {"type": "Polygon", "coordinates": [[[247.89, 340.1], [200.31, 324.48], [168.22, 324.48], [168.22, 402.14], [224.75, 420.7], [241.85, 358.47], [247.89, 340.1]]]}}, {"type": "Feature", "properties": {"id": "R023", "type": "room", "name": "Stor.", "area_sqft": 38.1, "flags": ["from_draw", "name_provisional"], "source": "user_draw", "reg_status": "n/a"}, "geometry": {"type": "Polygon", "coordinates": [[[1860.15, 834.34], [1933.73, 826.0], [1925.23, 751.2], [1860.15, 751.19], [1860.15, 834.34]]]}}, {"type": "Feature", "properties": {"id": "R024", "type": "room", "name": "Elev. 2", "area_sqft": 72.0, "flags": ["from_draw", "name_provisional"], "source": "user_draw", "reg_status": "n/a"}, "geometry": {"type": "Polygon", "coordinates": [[[1972.3, 691.74], [2088.86, 678.53], [2078.73, 589.31], [1963.76, 604.07], [1972.3, 691.74]]]}}, {"type": "Feature", "properties": {"id": "R025", "type": "room", "name": "Kitchen", "area_sqft": 136.2, "flags": ["from_draw", "name_provisional"], "source": "user_draw", "reg_status": "n/a"}, "geometry": {"type": "Polygon", "coordinates": [[[1907.2, 433.21], [1908.62, 434.74], [1914.29, 434.74], [1914.29, 485.8], [1912.85, 566.32], [1912.83, 567.57], [2012.59, 569.06], [2068.97, 570.23], [2068.92, 569.91], [2049.0, 434.0], [1907.2, 433.21]]]}}, {"type": "Feature", "properties": {"id": "R026", "type": "room", "name": "Closet", "area_sqft": 16.6, "flags": ["from_draw", "name_provisional"], "source": "user_draw", "reg_status": "n/a"}, "geometry": {"type": "Polygon", "coordinates": [[[1738.45, 777.54], [1735.26, 806.39], [1815.97, 809.12], [1815.97, 777.54], [1738.45, 777.54]]]}}, {"type": "Feature", "properties": {"id": "R028", "type": "void", "name": null, "area_sqft": 21.1, "flags": ["void_from_exclude"], "source": "user_exclude", "reg_status": "n/a"}, "geometry": {"type": "Polygon", "coordinates": [[[2073.61, 589.92], [2072.98, 570.31], [2012.59, 569.06], [1960.25, 568.1], [1962.35, 589.64], [1960.51, 602.75], [2073.61, 589.92]]]}}, {"type": "Feature", "properties": {"id": "R029", "type": "void", "name": null, "area_sqft": 19.3, "flags": ["void_from_exclude"], "source": "user_exclude", "reg_status": "n/a"}, "geometry": {"type": "Polygon", "coordinates": [[[2106.35, 901.83], [2099.52, 842.05], [2056.04, 845.59], [2056.63, 859.09], [2058.61, 876.51], [2057.34, 877.21], [2058.51, 907.25], [2106.35, 901.83]]]}}, {"type": "Feature", "properties": {"id": "R030", "type": "void", "name": null, "area_sqft": 16.1, "flags": ["void_from_exclude"], "source": "user_exclude", "reg_status": "n/a"}, "geometry": {"type": "Polygon", "coordinates": [[[671.38, 527.22], [670.58, 625.97], [692.88, 637.11], [693.68, 528.82], [671.38, 527.22]]]}}, {"type": "Feature", "properties": {"id": "R031", "type": "room", "name": null, "area_sqft": 303.5, "flags": ["from_draw:path5558", "needs_name"], "source": "user_draw", "reg_status": "n/a"}, "geometry": {"type": "Polygon", "coordinates": [[[115.71, 384.9], [119.16, 374.39], [108.08, 370.75], [93.49, 347.86], [88.68, 305.51], [87.74, 305.62], [66.26, 108.16], [149.0, 108.16], [10.7, 108.03], [46.4, 417.41], [250.57, 485.26], [449.61, 550.72], [468.32, 492.19], [272.43, 429.28], [297.91, 354.42], [246.94, 339.29], [246.81, 339.75], [247.89, 340.1], [241.85, 358.47], [224.75, 420.7], [223.57, 420.31], [168.22, 402.14], [115.71, 384.9]]]}}, {"type": "Feature", "properties": {"id": "R032", "type": "room", "name": "Elev. Lobby", "area_sqft": 190.3, "flags": ["from_draw:path5560", "name_provisional"], "source": "user_draw", "reg_status": "n/a"}, "geometry": {"type": "Polygon", "coordinates": [[[201.55, 320.98], [202.26, 321.21], [202.26, 324.48], [200.31, 324.48], [246.81, 339.75], [246.94, 339.29], [297.91, 354.42], [297.45, 355.77], [313.89, 358.4], [313.1, 442.34], [468.06, 492.11], [468.54, 490.58], [314.58, 440.03], [314.58, 300.29], [317.56, 300.29], [317.56, 156.24], [314.56, 156.24], [313.74, 137.68], [313.83, 108.16], [200.76, 108.16], [201.55, 320.98]]]}}, {"type": "Feature", "properties": {"id": "R033", "type": "room", "name": null, "area_sqft": 80.0, "flags": ["from_draw:path5561", "needs_name"], "source": "user_draw", "reg_status": "n/a"}, "geometry": {"type": "Polygon", "coordinates": [[[260.23, -0.38], [154.14, -0.38], [154.14, 108.16], [260.23, 108.16], [260.23, -0.38]]]}}, {"type": "Feature", "properties": {"id": "R034", "type": "room", "name": null, "area_sqft": 220.8, "flags": ["from_draw:path5564", "needs_name"], "source": "user_draw", "reg_status": "n/a"}, "geometry": {"type": "Polygon", "coordinates": [[[1113.8, 650.7], [1113.94, 769.23], [1320.81, 837.27], [1320.82, 837.27], [1322.48, 837.82], [1323.67, 731.53], [1320.75, 731.51], [1320.7, 650.7], [1113.8, 650.7]]]}}, {"type": "Feature", "properties": {"id": "R035", "type": "room", "name": null, "area_sqft": 207.9, "flags": ["from_draw:path5565", "needs_name"], "source": "user_draw", "reg_status": "n/a"}, "geometry": {"type": "Polygon", "coordinates": [[[901.45, 566.53], [901.45, 533.15], [900.77, 533.08], [900.72, 527.22], [838.82, 527.7], [838.82, 523.18], [674.7, 524.15], [675.82, 345.77], [671.75, 345.77], [671.87, 527.26], [693.68, 528.82], [692.93, 630.75], [902.19, 699.58], [901.53, 621.61], [901.45, 566.53]]]}}, {"type": "Feature", "properties": {"id": "R036", "type": "room", "name": null, "area_sqft": 267.7, "flags": ["from_draw:path5566", "needs_name"], "source": "user_draw", "reg_status": "n/a"}, "geometry": {"type": "Polygon", "coordinates": [[[519.15, 300.29], [314.58, 300.29], [314.58, 440.03], [468.54, 490.58], [448.68, 553.53], [492.29, 570.0], [519.15, 488.3], [519.15, 300.29]]]}}, {"type": "Feature", "properties": {"id": "R037", "type": "room", "name": null, "area_sqft": 323.3, "flags": ["from_draw:path5567", "needs_name"], "source": "user_draw", "reg_status": "n/a"}, "geometry": {"type": "Polygon", "coordinates": [[[493.84, 565.27], [670.6, 623.41], [671.38, 527.22], [671.87, 527.26], [671.72, 300.29], [519.15, 300.29], [519.15, 488.3], [493.84, 565.27]]]}}, {"type": "Feature", "properties": {"id": "R038", "type": "void", "name": null, "area_sqft": 16.2, "flags": ["void_from_exclude"], "source": "user_exclude", "reg_status": "n/a"}, "geometry": {"type": "Polygon", "coordinates": [[[313.1, 442.34], [313.89, 358.4], [297.45, 355.77], [272.59, 428.82], [313.1, 442.34]]]}}]}