{"type": "FeatureCollection", "name": "F4", "crs_note": "floor frame, inches; source drawing F4", "features": [{"type": "Feature", "properties": {"id": "R001", "type": "room", "name": null, "area_sqft": 278.7, "flags": [], "source": "candidate", "reg_status": "n/a"}, "geometry": {"type": "Polygon", "coordinates": [[[2085.19, 1086.0], [2103.24, 1080.84], [2126.03, 1078.19], [2126.24, 1078.17], [2123.44, 1053.97], [2117.2, 1023.63], [2119.88, 1023.33], [2105.79, 901.95], [2066.83, 906.47], [2067.02, 907.38], [1977.98, 918.85], [1864.27, 879.75], [1824.69, 1001.39], [2075.69, 1082.91], [2085.19, 1086.0]]]}}, {"type": "Feature", "properties": {"id": "R002", "type": "room", "name": null, "area_sqft": 209.3, "flags": [], "source": "candidate", "reg_status": "n/a"}, "geometry": {"type": "Polygon", "coordinates": [[[1863.78, 881.25], [1863.51, 780.15], [1706.08, 780.59], [1706.87, 963.13], [1824.69, 1001.39], [1863.78, 881.25]]]}}, {"type": "Feature", "properties": {"id": "R003", "type": "room", "name": null, "area_sqft": 207.0, "flags": [], "source": "candidate", "reg_status": "n/a"}, "geometry": {"type": "Polygon", "coordinates": [[[1507.2, 781.15], [1507.77, 898.46], [1706.87, 963.13], [1706.08, 780.59], [1507.2, 781.15]]]}}, {"type": "Feature", "properties": {"id": "R005", "type": "room", "name": null, "area_sqft": 184.7, "flags": ["geometry_replaced_by_draw:path5810"], "source": "candidate", "reg_status": "n/a"}, "geometry": {"type": "Polygon", "coordinates": [[[1507.77, 898.46], [1507.07, 731.11], [1305.68, 736.12], [1306.14, 832.98], [1507.77, 898.46]]]}}, {"type": "Feature", "properties": {"id": "R006", "type": "room", "name": null, "area_sqft": 25.7, "flags": [], "source": "candidate", "reg_status": "n/a"}, "geometry": {"type": "Polygon", "coordinates": [[[1863.62, 824.46], [1923.34, 821.07], [1923.18, 760.61], [1863.45, 760.78], [1863.62, 824.46]]]}}, {"type": "Feature", "properties": {"id": "R008", "type": "room", "name": null, "area_sqft": 205.9, "flags": [], "source": "candidate", "reg_status": "n/a"}, "geometry": {"type": "Polygon", "coordinates": [[[1102.21, 654.0], [1101.68, 766.57], [1304.75, 832.53], [1305.46, 653.43], [1102.21, 654.0]]]}}, {"type": "Feature", "properties": {"id": "R012", "type": "room", "name": null, "area_sqft": 246.5, "flags": ["geometry_replaced_by_draw:path5811"], "source": "candidate", "reg_status": "n/a"}, "geometry": {"type": "Polygon", "coordinates": [[[700.72, 636.35], [893.54, 698.97], [893.44, 690.33], [892.12, 689.88], [892.12, 585.06], [892.22, 585.06], [891.01, 480.24], [700.32, 483.58], [700.72, 636.35]]]}}, {"type": "Feature", "properties": {"id": "R015", "type": "room", "name": null, "area_sqft": 34.7, "flags": [], "source": "candidate", "reg_status": "n/a"}, "geometry": {"type": "Polygon", "coordinates": [[[537.86, 373.3], [460.6, 373.51], [443.28, 426.76], [513.08, 449.49], [537.86, 373.3]]]}}, {"type": "Feature", "properties": {"id": "R016", "type": "void", "name": null, "area_sqft": 31.7, "flags": [], "source": "candidate", "reg_status": "n/a"}, "geometry": {"type": "Polygon", "coordinates": [[[460.6, 373.51], [317.74, 373.91], [316.77, 385.58], [443.28, 426.76], [460.6, 373.51]]]}}, {"type": "Feature", "properties": {"id": "R017", "type": "room", "name": null, "area_sqft": 4565.2, "flags": [], "source": "candidate", "reg_status": "n/a"}, "geometry": {"type": "Polygon", "coordinates": [[[1285.99, 167.62], [697.61, 169.26], [697.73, 213.51], [694.76, 213.52], [694.75, 214.84], [353.27, 218.16], [353.47, 293.09], [315.02, 373.92], [651.51, 372.98], [699.41, 373.78], [699.77, 506.31], [694.37, 522.91], [696.41, 523.22], [698.53, 635.64], [700.72, 636.35], [700.32, 483.58], [891.01, 480.24], [892.22, 585.06], [1101.76, 582.83], [1102.21, 654.0], [1305.46, 653.43], [1304.75, 832.53], [1306.14, 832.98], [1305.68, 736.12], [1502.46, 731.22], [1502.48, 731.24], [1507.07, 731.22], [1507.2, 781.15], [1863.51, 780.15], [1863.06, 611.81], [1965.39, 597.91], [1965.85, 601.74], [2062.49, 590.52], [2036.94, 294.9], [1748.15, 295.7], [1748.11, 281.98], [1744.86, 165.19], [1744.23, 166.34], [1694.35, 166.48], [1332.7, 167.49], [1292.24, 162.12], [1285.99, 167.62]], [[1533.87, 234.86], [1534.1, 321.23], [1418.8, 321.56], [1418.57, 235.18], [1533.87, 234.86]], [[1534.75, 562.45], [1534.99, 652.78], [1420.94, 653.09], [1419.38, 559.05], [1422.35, 559.04], [1534.75, 562.45]]]}}, {"type": "Feature", "properties": {"id": "R019", "type": "shaft", "name": null, "area_sqft": 32.0, "flags": [], "source": "candidate", "reg_status": "n/a"}, "geometry": {"type": "Polygon", "coordinates": [[[63.3, 306.46], [69.27, 357.83], [155.92, 357.59], [155.78, 306.2], [63.3, 306.46]]]}}, {"type": "Feature", "properties": {"id": "R020", "type": "room", "name": null, "area_sqft": 197.9, "flags": [], "source": "candidate", "reg_status": "n/a"}, "geometry": {"type": "Polygon", "coordinates": [[[193.97, 293.73], [215.04, 252.2], [214.61, 251.99], [232.24, 214.82], [263.58, 214.72], [263.35, 128.14], [249.29, 128.18], [242.84, 120.43], [149.64, 121.88], [149.42, 121.89], [65.86, 123.19], [65.86, 123.2], [22.47, 123.89], [63.0, 126.64], [54.12, 144.14], [20.96, 203.35], [21.51, 208.35], [21.73, 210.33], [151.36, 271.84], [193.97, 293.73]]]}}, {"type": "Feature", "properties": {"id": "R021", "type": "room", "name": null, "area_sqft": 488.0, "flags": [], "source": "candidate", "reg_status": "n/a"}, "geometry": {"type": "Polygon", "coordinates": [[[1744.89, 166.18], [1748.11, 281.98], [1748.15, 295.7], [2025.73, 294.93], [2025.9, 293.34], [2043.47, 291.3], [2008.37, -3.63], [1825.65, -3.32], [1822.77, -3.32], [1826.11, 166.11], [1744.89, 166.18]]]}}, {"type": "Feature", "properties": {"id": "R023", "type": "room", "name": null, "area_sqft": 198.7, "flags": [], "source": "candidate", "reg_status": "n/a"}, "geometry": {"type": "Polygon", "coordinates": [[[1638.69, 166.64], [1638.25, -3.01], [1497.42, -2.77], [1498.43, 2.08], [1493.38, 2.1], [1493.45, 27.58], [1492.11, 27.58], [1492.11, 29.82], [1464.04, 29.9], [1464.41, 167.12], [1638.69, 166.64]]]}}, {"type": "Feature", "properties": {"id": "R025", "type": "room", "name": null, "area_sqft": 198.2, "flags": [], "source": "candidate", "reg_status": "n/a"}, "geometry": {"type": "Polygon", "coordinates": [[[1112.31, 4.06], [1112.74, 168.1], [1288.66, 167.61], [1285.29, 4.37], [1112.31, 4.06]]]}}, {"type": "Feature", "properties": {"id": "R028", "type": "room", "name": null, "area_sqft": 204.5, "flags": [], "source": "candidate", "reg_status": "n/a"}, "geometry": {"type": "Polygon", "coordinates": [[[1464.04, 29.9], [1493.45, 29.82], [1493.38, 4.75], [1285.29, 4.37], [1288.66, 161.65], [1332.7, 167.49], [1464.41, 167.12], [1464.04, 29.9]]]}}, {"type": "Feature", "properties": {"id": "R030", "type": "room", "name": null, "area_sqft": 171.3, "flags": ["geometry_replaced_by_draw:path5814"], "source": "candidate", "reg_status": "n/a"}, "geometry": {"type": "Polygon", "coordinates": [[[234.49, 365.41], [170.68, 344.63], [195.31, 292.69], [21.73, 210.33], [38.26, 359.3], [133.29, 452.06], [185.39, 468.98], [234.49, 365.41]], [[69.27, 357.83], [63.3, 306.46], [155.78, 306.2], [155.92, 357.59], [69.27, 357.83]]]}}, {"type": "Feature", "properties": {"id": "R031", "type": "room", "name": null, "area_sqft": 186.9, "flags": [], "source": "candidate", "reg_status": "n/a"}, "geometry": {"type": "Polygon", "coordinates": [[[174.31, 336.98], [231.64, 364.37], [232.67, 362.2], [237.28, 364.4], [239.05, 360.27], [316.77, 385.57], [318.31, 367.0], [353.47, 293.09], [353.27, 218.16], [350.18, 218.19], [350.83, 154.72], [263.43, 160.19], [263.58, 214.72], [232.24, 214.81], [214.61, 251.99], [215.04, 252.2], [196.34, 289.07], [196.9, 289.33], [174.31, 336.98]]]}}, {"type": "Feature", "properties": {"id": "R033", "type": "room", "name": "Elev. 2", "area_sqft": 80.2, "flags": ["from_draw", "name_provisional"], "source": "user_draw", "reg_status": "n/a"}, "geometry": {"type": "Polygon", "coordinates": [[[1977.37, 697.61], [2095.95, 683.85], [2084.81, 587.93], [1965.85, 601.74], [1977.37, 697.61]]]}}, {"type": "Feature", "properties": {"id": "R035", "type": "void", "name": null, "area_sqft": 16.3, "flags": ["void_from_exclude"], "source": "user_exclude", "reg_status": "n/a"}, "geometry": {"type": "Polygon", "coordinates": [[[678.6, 571.35], [667.07, 600.81], [659.17, 624.33], [698.6, 639.31], [696.41, 523.22], [694.36, 522.91], [678.6, 571.35]]]}}, {"type": "Feature", "properties": {"id": "R036", "type": "void", "name": null, "area_sqft": 13.0, "flags": ["void_from_exclude"], "source": "user_exclude", "reg_status": "n/a"}, "geometry": {"type": "Polygon", "coordinates": [[[2066.95, 906.46], [2113.19, 901.08], [2108.57, 860.62], [2062.38, 867.02], [2066.95, 906.46]]]}}, {"type": "Feature", "properties": {"id": "R037", "type": "room", "name": "Elev. 2", "area_sqft": 274.6, "flags": ["from_draw:path5796", "name_provisional"], "source": "user_draw", "reg_status": "n/a"}, "geometry": {"type": "Polygon", "coordinates": [[[540.6, 461.2], [541.41, 458.71], [513.08, 449.49], [443.28, 426.76], [316.77, 385.58], [316.77, 385.57], [239.05, 360.27], [237.28, 364.4], [232.67, 362.2], [231.64, 364.37], [174.31, 336.98], [170.68, 344.63], [234.49, 365.41], [185.39, 468.98], [188.2, 469.89], [504.38, 572.58], [539.3, 465.19], [540.6, 461.2]]]}}, {"type": "Feature", "properties": {"id": "R038", "type": "room", "name": "Jan.", "area_sqft": 275.7, "flags": ["from_draw:path5797", "name_provisional"], "source": "user_draw", "reg_status": "n/a"}, "geometry": {"type": "Polygon", "coordinates": [[[699.41, 372.85], [537.88, 373.3], [512.69, 449.36], [541.41, 458.71], [504.42, 572.44], [646.48, 635.4], [682.42, 559.61], [699.77, 506.31], [699.41, 372.85]]]}}, {"type": "Feature", "properties": {"id": "R039", "type": "room", "name": null, "area_sqft": 125.6, "flags": ["from_draw:path5798", "needs_name"], "source": "user_draw", "reg_status": "n/a"}, "geometry": {"type": "Polygon", "coordinates": [[[152.46, -0.5], [-1.63, -0.17], [12.16, 124.05], [149.64, 121.88], [153.34, 37.43], [152.46, -0.5]]]}}, {"type": "Feature", "properties": {"id": "R040", "type": "room", "name": null, "area_sqft": 192.1, "flags": ["from_draw:path5799", "needs_name"], "source": "user_draw", "reg_status": "n/a"}, "geometry": {"type": "Polygon", "coordinates": [[[242.84, 120.43], [249.29, 128.18], [263.35, 128.14], [263.41, 152.34], [263.2, 160.2], [350.83, 154.72], [352.44, -0.84], [155.03, -0.5], [152.46, -0.5], [153.32, 36.72], [149.42, 121.89], [242.84, 120.43]]]}}, {"type": "Feature", "properties": {"id": "R041", "type": "room", "name": null, "area_sqft": 513.2, "flags": ["from_draw:path5800", "needs_name"], "source": "user_draw", "reg_status": "n/a"}, "geometry": {"type": "Polygon", "coordinates": [[[352.41, 2.69], [350.18, 218.19], [694.75, 214.84], [694.76, 213.52], [697.73, 213.51], [697.61, 169.26], [697.17, 3.31], [697.15, 3.31], [696.99, 3.31], [352.41, 2.69]]]}}, {"type": "Feature", "properties": {"id": "R042", "type": "room", "name": null, "area_sqft": 256.3, "flags": ["from_draw:path5801", "needs_name"], "source": "user_draw", "reg_status": "n/a"}, "geometry": {"type": "Polygon", "coordinates": [[[901.01, 16.33], [907.4, 3.69], [697.17, 3.31], [697.61, 169.26], [908.11, 168.68], [935.8, 21.76], [901.01, 16.33]]]}}, {"type": "Feature", "properties": {"id": "R043", "type": "room", "name": null, "area_sqft": 193.3, "flags": ["from_draw:path5802", "needs_name"], "source": "user_draw", "reg_status": "n/a"}, "geometry": {"type": "Polygon", "coordinates": [[[936.85, 21.93], [937.24, 168.59], [1112.74, 168.1], [1112.35, 21.46], [937.79, 3.65], [906.29, 5.92], [901.01, 16.33], [936.85, 21.93]]]}}, {"type": "Feature", "properties": {"id": "R044", "type": "room", "name": null, "area_sqft": 219.0, "flags": ["from_draw:path5803", "needs_name"], "source": "user_draw", "reg_status": "n/a"}, "geometry": {"type": "Polygon", "coordinates": [[[1638.69, 166.63], [1826.11, 166.11], [1822.77, -3.32], [1638.24, -3.01], [1638.69, 166.63]]]}}, {"type": "Feature", "properties": {"id": "R045", "type": "room", "name": null, "area_sqft": 136.7, "flags": ["from_draw:path5804", "needs_name"], "source": "user_draw", "reg_status": "n/a"}, "geometry": {"type": "Polygon", "coordinates": [[[2088.45, 684.71], [2016.87, 693.03], [1978.09, 697.53], [1977.37, 697.61], [1997.77, 867.37], [1995.68, 871.71], [1998.29, 871.52], [1998.48, 873.19], [2108.54, 860.41], [2088.45, 684.71]]]}}, {"type": "Feature", "properties": {"id": "R046", "type": "room", "name": null, "area_sqft": 23.7, "flags": ["from_draw:path5805", "needs_name"], "source": "user_draw", "reg_status": "n/a"}, "geometry": {"type": "Polygon", "coordinates": [[[1995.28, 871.74], [1972.25, 919.59], [2067.02, 907.38], [2058.59, 867.21], [1995.28, 871.74]]]}}, {"type": "Feature", "properties": {"id": "R047", "type": "room", "name": null, "area_sqft": 214.6, "flags": ["from_draw:path5807", "needs_name"], "source": "user_draw", "reg_status": "n/a"}, "geometry": {"type": "Polygon", "coordinates": [[[1863.02, 611.82], [1864.48, 761.04], [1923.18, 760.62], [1923.34, 821.07], [1863.63, 824.46], [1863.64, 828.01], [1883.46, 825.92], [1864.65, 874.43], [1863.76, 874.26], [1863.77, 878.26], [1863.3, 879.42], [1973.65, 917.37], [1997.77, 867.37], [1965.39, 597.91], [1863.02, 611.82]]]}}, {"type": "Feature", "properties": {"id": "R048", "type": "room", "name": null, "area_sqft": 69.2, "flags": ["from_draw:path5808", "needs_name"], "source": "user_draw", "reg_status": "n/a"}, "geometry": {"type": "Polygon", "coordinates": [[[1533.87, 234.86], [1418.57, 235.18], [1418.8, 321.56], [1534.1, 321.23], [1533.87, 234.86]]]}}, {"type": "Feature", "properties": {"id": "R049", "type": "room", "name": null, "area_sqft": 73.5, "flags": ["from_draw:path5809", "needs_name"], "source": "user_draw", "reg_status": "n/a"}, "geometry": {"type": "Polygon", "coordinates": [[[1534.75, 562.45], [1419.38, 558.95], [1420.94, 653.1], [1534.99, 652.78], [1534.75, 562.45]]]}}, {"type": "Feature", "properties": {"id": "R050", "type": "room", "name": null, "area_sqft": 206.2, "flags": ["from_draw:path5812", "needs_name"], "source": "user_draw", "reg_status": "n/a"}, "geometry": {"type": "Polygon", "coordinates": [[[892.12, 585.06], [892.12, 689.88], [1101.7, 760.85], [1102.21, 654.29], [1101.76, 582.83], [892.12, 585.06]]]}}, {"type": "Feature", "properties": {"id": "R051", "type": "void", "name": null, "area_sqft": 3.3, "flags": ["void_from_exclude"], "source": "user_exclude", "reg_status": "n/a"}, "geometry": {"type": "Polygon", "coordinates": [[[1883.46, 825.92], [1863.64, 828.01], [1863.76, 874.26], [1864.65, 874.43], [1883.46, 825.92]]]}}, {"type": "Feature", "properties": {"id": "R052", "type": "void", "name": null, "area_sqft": 14.3, "flags": ["void_from_exclude"], "source": "user_exclude", "reg_status": "n/a"}, "geometry": {"type": "Polygon", "coordinates": [[[12.06, 123.18], [20.96, 203.35], [54.12, 144.14], [63.0, 126.64], [12.06, 123.18]]]}}, {"type": "Feature", "properties": {"id": "R053", "type": "void", "name": null, "area_sqft": 5.4, "flags": ["void_from_exclude"], "source": "user_exclude", "reg_status": "n/a"}, "geometry": {"type": "Polygon", "coordinates": [[[2071.26, 1089.98], [2126.3, 1104.13], [2126.3, 1078.16], [2103.24, 1080.84], [2071.26, 1089.98]]]}}]}